[
    {
        "CCSDS_OMM_VERS": "3.0",
        "COMMENT": "GENERATED VIA SPACE-TRACK.ORG API",
        "CREATION_DATE": "2025-05-03T17:28:03",
        "ORIGINATOR": "18 SPCS",
        "OBJECT_NAME": "BEIDOU 3M18",
        "OBJECT_ID": "2018-093B",
        "CENTER_NAME": "EARTH",
        "REF_FRAME": "TEME",
        "TIME_SYSTEM": "UTC",
        "MEAN_ELEMENT_THEORY": "SGP4",
        "EPOCH": "2025-05-02T22:30:52.121664",
        "MEAN_MOTION": "1.86229845",
        "ECCENTRICITY": "0.00070320",
        "INCLINATION": "54.1847",
        "RA_OF_ASC_NODE": "196.2063",
        "ARG_OF_PERICENTER": "315.1102",
        "MEAN_ANOMALY": "44.8952",
        "EPHEMERIS_TYPE": "0",
        "CLASSIFICATION_TYPE": "U",
        "NORAD_CAT_ID": "43707",
        "ELEMENT_SET_NO": "999",
        "REV_AT_EPOCH": "4389",
        "BSTAR": "0.00000000000000",
        "MEAN_MOTION_DOT": "-0.00000013",
        "MEAN_MOTION_DDOT": "0.0000000000000",
        "SEMIMAJOR_AXIS": "27906.304",
        "PERIOD": "773.238",
        "APOAPSIS": "21547.793",
        "PERIAPSIS": "21508.545",
        "OBJECT_TYPE": "PAYLOAD",
        "RCS_SIZE": "LARGE",
        "COUNTRY_CODE": "PRC",
        "LAUNCH_DATE": "2018-11-18",
        "SITE": "XSC",
        "DECAY_DATE": null,
        "FILE": "4717971",
        "GP_ID": "286762595",
        "TLE_LINE0": "0 BEIDOU 3M18",
        "TLE_LINE1": "1 43707U 18093B   25122.93810326 -.00000013  00000-0  00000-0 0  9991",
        "TLE_LINE2": "2 43707  54.1847 196.2063 0007032 315.1102  44.8952  1.86229845 43895"
    }
]